0 METEOR 2-17 DEB
1 38655U 88005AY  13283.01930231  .00002262  00000-0  16649-2 0   434
2 38655 082.5385 032.1325 0024515 074.8879 285.7584 13.95044992355194
0 METEOR 2-17 DEB
1 38655U 88005AY  13290.55007507  .00002861  00000-0  21071-2 0   443
2 38655 082.5399 026.0323 0024116 060.3302 300.3558 13.95094951356249
